BEIDOU 3 (C01)          
1 36287U 10001A   21058.66423907 -.00000287  00000-0  00000-0 0  9999
2 36287   1.7126  41.0342 0002781 100.3919  35.7433  1.00267865 40756
BEIDOU 5 (C06)          
1 36828U 10036A   21059.49010397 -.00000135  00000-0  00000-0 0  9997
2 36828  54.1758 180.6064 0107581 234.2410  36.7366  1.00295500 38815
BEIDOU 6 (C04)          
1 37210U 10057A   21059.49525775 -.00000118  00000-0  00000-0 0  9998
2 37210   0.9504  53.8373 0004248 196.6325 246.3877  1.00271437 37880
BEIDOU 7 (C07)          
1 37256U 10068A   21059.55179116 -.00000178  00000-0  00000-0 0  9997
2 37256  51.0472 295.2995 0081955 216.3065 324.0865  1.00291055 37399
BEIDOU 8 (C08)          
1 37384U 11013A   21059.62688208 -.00000158  00000-0  00000-0 0  9993
2 37384  59.6281  58.9973 0054714 207.3744 237.3355  1.00284527 36272
BEIDOU 9 (C09)          
1 37763U 11038A   21059.55362297 -.00000099  00000-0  00000-0 0  9994
2 37763  54.4645 183.0325 0078338 224.0387  45.0400  1.00287533 35249
BEIDOU 10 (C10)         
1 37948U 11073A   21059.01970406 -.00000117  00000-0  00000-0 0  9997
2 37948  51.1498 294.9151 0069319 215.1040 111.1758  1.00278079 33995
BEIDOU 11 (C05)         
1 38091U 12008A   21059.60601703  .00000051  00000-0  00000-0 0  9998
2 38091   1.3234  64.3546 0008338 296.5376  74.6055  1.00269150 33089
BEIDOU 12 (C11)         
1 38250U 12018A   21059.35968370 -.00000072  00000-0  00000-0 0  9998
2 38250  56.7568   9.2138 0023504 252.0730 339.4231  1.86234378 60253
BEIDOU 13 (C12)         
1 38251U 12018B   21059.29516623 -.00000072  00000-0  00000-0 0  9992
2 38251  56.6790   8.5709 0014601 257.6341 335.0446  1.86234248 60259
BEIDOU 15 (C14)         
1 38775U 12050B   21059.37033248  .00000029  00000-0  00000-0 0  9996
2 38775  55.1587 127.6602 0014140 316.9312 163.5106  1.86232332 57635
BEIDOU 16 (C02)         
1 38953U 12059A   21059.60519669 -.00000183  00000-0  00000-0 0  9997
2 38953   1.7070  84.9083 0009536 267.5880 108.0653  1.00272974 30655
BEIDOU 17 (C31)         
1 40549U 15019A   21059.01728740 -.00000153  00000-0  00000-0 0  9994
2 40549  52.6697 318.2594 0036362 188.3257 112.7404  1.00290222 21678
BEIDOU 18 (C57)         
1 40748U 15037A   21059.39083333 -.00000074  00000-0  00000-0 0  9990
2 40748  55.9449   7.7204 0005278 342.1906 224.6533  1.86233480 38087
BEIDOU 19 (C58)         
1 40749U 15037B   21059.62020001 -.00000074  00000-0  00000-0 0  9990
2 40749  55.9477   7.7003 0007241 313.5898 183.6087  1.86232335 38086
BEIDOU 20 (C18)         
1 40938U 15053A   21059.02514502 -.00000084  00000-0  00000-0 0  9997
2 40938  52.2314 281.3135 0046151 190.0407 150.8794  1.00261343 19952
BEIDOU IGSO-6 (C13)     
1 41434U 16021A   21059.46926498 -.00000119  00000-0  00000-0 0  9993
2 41434  57.4039  57.7863 0040737 216.1997 148.2849  1.00291457 18080
BEIDOU-2 G7 (C03)       
1 41586U 16037A   21059.74270434 -.00000361  00000-0  00000+0 0  9999
2 41586   1.4725  63.9186 0009086   7.7365 104.9666  1.00275223 17382
BEIDOU-3 M1 (C19)       
1 43001U 17069A   21059.41788222  .00000029  00000-0  00000-0 0  9993
2 43001  55.3136 127.5977 0010079 284.9333  23.7033  1.86231704 22565
BEIDOU-3 M2 (C20)       
1 43002U 17069B   21059.35158341  .00000029  00000-0  00000-0 0  9990
2 43002  55.3123 127.6365 0008440 305.6106   2.1805  1.86231490 22551
BEIDOU-3 M3 (C27)       
1 43107U 18003A   21059.27996865 -.00000074  00000-0  00000-0 0  9998
2 43107  55.3857   8.8548 0004616  26.0954  39.5559  1.86232558 21320
BEIDOU-3 M4 (C28)       
1 43108U 18003B   21059.16055749 -.00000074  00000-0  00000-0 0  9994
2 43108  55.3800   8.8485 0003963 263.5168 127.2594  1.86232569 21324
BEIDOU-3 M5 (C21)       
1 43207U 18018A   21058.48822160  .00000028  00000-0  00000-0 0  9991
2 43207  55.2729 127.7593 0005815 326.2009  33.8385  1.86231580 20694
BEIDOU-3 M6 (C22)       
1 43208U 18018B   21059.09187816  .00000029  00000-0  00000-0 0  9993
2 43208  55.2722 127.7437 0008203 294.9727  65.0218  1.86231754 20704
BEIDOU-3 M7 (C29)       
1 43245U 18029A   21059.08556968 -.00000075  00000-0  00000-0 0  9995
2 43245  55.3213   6.6570 0001678 313.5513 251.9052  1.86232643 19858
BEIDOU-3 M8 (C30)       
1 43246U 18029B   21059.42161913 -.00000075  00000-0  10000-3 0  9990
2 43246  55.3186   6.6775 0005389 338.2769 138.5894  1.86232985 19858
BEIDOU IGSO-7 (C16)     
1 43539U 18057A   21059.48774059 -.00000149  00000-0  00000-0 0  9991
2 43539  55.0562 179.9328 0032353 213.2963  51.7150  1.00246565  9759
BEIDOU-3 M9 (C23)       
1 43581U 18062A   21059.50997049  .00000055  00000-0  00000-0 0  9998
2 43581  54.4484 248.3366 0002181 318.7016  67.2217  1.86231871 17608
BEIDOU-3 M10 (C24)      
1 43582U 18062B   21059.29546543  .00000056  00000-0  00000-0 0  9995
2 43582  54.4461 248.3324 0006463  16.5303 316.8423  1.86232232 17599
BEIDOU-3 M11 (C25)      
1 43602U 18067A   21059.54393993  .00000056  00000-0  00000-0 0  9990
2 43602  54.5231 246.8976 0007416   6.5492 175.7934  1.86231605 17098
BEIDOU-3 M12 (C26)      
1 43603U 18067B   21059.50817479  .00000056  00000-0  00000-0 0  9997
2 43603  54.5165 246.8680 0004547   1.7835  67.0639  1.86231528 17119
BEIDOU-3 M13 (C32)      
1 43622U 18072A   21059.37844900  .00000029  00000-0  00000-0 0  9998
2 43622  55.2367 127.3013 0006730 279.2373  92.9152  1.86231519 16622
BEIDOU-3 M14 (C33)      
1 43623U 18072B   21059.42585404  .00000029  00000-0  00000-0 0  9996
2 43623  55.2371 127.2908 0004905 302.9231 191.2483  1.86231535 16627
BEIDOU-3 M15 (C34)      
1 43647U 18078A   21059.61835510 -.00000075  00000-0  10000-3 0  9991
2 43647  55.2145   6.8388 0007683 345.4314 173.0138  1.86232872 16132
BEIDOU-3 M16 (C35)      
1 43648U 18078B   21058.60089311 -.00000075  00000-0  10000-3 0  9990
2 43648  55.2106   6.8814 0005496 350.9803 113.9509  1.86232416 16137
BEIDOU-3 G1 (C59)       
1 43683U 18085A   21058.76662569 -.00000286  00000-0  00000-0 0  9996
2 43683   1.2434 239.5120 0002971  41.3790 292.9490  1.00270575  8656
BEIDOU-3 M17 (C36)      
1 43706U 18093A   21059.60691183  .00000055  00000-0  00000-0 0  9992
2 43706  54.5276 248.1838 0007513 279.2768  36.5968  1.86231874 15498
BEIDOU-3 M18 (C37)      
1 43707U 18093B   21059.50966955  .00000056  00000-0  00000-0 0  9995
2 43707  54.5288 248.1754 0007083 310.9756  30.4553  1.86232123 15492
BEIDOU-3 IGSO-1 (C38)   
1 44204U 19023A   21059.40741572 -.00000179  00000-0  00000-0 0  9994
2 44204  55.8648  58.0994 0016739 205.3757 155.9281  1.00272445  6969
BEIDOU-2 G8             
1 44231U 19027A   21056.90125721 -.00000250  00000-0  00000+0 0  9991
2 44231   0.4340 315.6120 0006822 268.3963  40.9534  1.00273799  6650
BEIDOU-3 IGSO-2 (C39)   
1 44337U 19035A   21058.75982128 -.00000147  00000-0  00000-0 0  9990
2 44337  55.0872 175.9846 0017202 187.4065 175.0529  1.00264686  6292
BEIDOU-3 M23 (C45)      
1 44542U 19061A   21059.34338454  .00000057  00000-0  10000-3 0  9993
2 44542  54.7534 248.2405 0008160 344.7622 198.6014  1.86231463  9751
BEIDOU-3 M24 (C46)      
1 44543U 19061B   21059.47737892  .00000056  00000-0  10000-3 0  9996
2 44543  54.7508 248.2070 0005467 344.0313 199.8685  1.86231764  9760
BEIDOU-3 IGSO-3         
1 44709U 19073A   21058.97772503 -.00000126  00000-0  00000-0 0  9990
2 44709  58.0089 301.2832 0018771 191.3143 123.5789  1.00258737  5048
BEIDOU-3 M21            
1 44793U 19078A   21058.67660090 -.00000075  00000-0  10000-3 0  9999
2 44793  55.0624   6.9487 0007306 350.4730 211.1570  1.86232419  8600
BEIDOU-3 M22            
1 44794U 19078B   21057.07682314 -.00000076  00000-0  10000-3 0  9997
2 44794  55.0382   7.0074 0005454 343.1803 136.6367  1.86232914  8579
BEIDOU-3 M19            
1 44864U 19090A   21059.51302630  .00000029  00000-0  00000-0 0  9993
2 44864  55.1719 127.5323 0016462 263.2764 244.5118  1.86231785  8204
BEIDOU-3 M20            
1 44865U 19090B   21059.31951793  .00000029  00000-0  00000-0 0  9992
2 44865  55.1735 127.5696 0015004 277.7932 190.1829  1.86231771  8181
BEIDOU-3 G2             
1 45344U 20017A   21059.54428888 -.00000147  00000-0  00000-0 0  9997
2 45344   2.5744 333.4426 0001831  41.4327  59.6311  1.00271236  3878
BEIDOU-3 G3             
1 45807U 20040A   21059.55030815 -.00000362  00000-0  00000-0 0  9996
2 45807   2.5355 298.4085 0009284  14.1838 154.5943  1.00275059  2686
